[{"OBJECT_NAME":"STARLINK-35149","OBJECT_ID":"2025-198W","EPOCH":"2026-03-09T19:31:25.796928","MEAN_MOTION":15.3019221,"ECCENTRICITY":0.00012723,"INCLINATION":53.1592,"RA_OF_ASC_NODE":270.0933,"ARG_OF_PERICENTER":58.2526,"MEAN_ANOMALY":301.8598,"EPHEMERIS_TYPE":0,"CLASSIFICATION_TYPE":"U","NORAD_CAT_ID":65512,"ELEMENT_SET_NO":999,"REV_AT_EPOCH":2864,"BSTAR":0.0004613106,"MEAN_MOTION_DOT":0.00013325,"MEAN_MOTION_DDOT":0},{"OBJECT_NAME":"SL-3 R\/B","OBJECT_ID":"1982-079B","EPOCH":"2026-03-09T22:18:18.158976","MEAN_MOTION":15.24805533,"ECCENTRICITY":0.00250364,"INCLINATION":81.1481,"RA_OF_ASC_NODE":192.7939,"ARG_OF_PERICENTER":164.0597,"MEAN_ANOMALY":196.143,"EPHEMERIS_TYPE":0,"CLASSIFICATION_TYPE":"U","NORAD_CAT_ID":13403,"ELEMENT_SET_NO":999,"REV_AT_EPOCH":37773,"BSTAR":0.00032485557,"MEAN_MOTION_DOT":8.157e-5,"MEAN_MOTION_DDOT":0}]
